[{"OBJECT_NAME":"STARLINK-35048","OBJECT_ID":"2025-184P","EPOCH":"2026-03-09T17:04:57.766944","MEAN_MOTION":15.05648721,"ECCENTRICITY":4.383e-5,"INCLINATION":97.6025,"RA_OF_ASC_NODE":122.6743,"ARG_OF_PERICENTER":118.8097,"MEAN_ANOMALY":241.3173,"EPHEMERIS_TYPE":0,"CLASSIFICATION_TYPE":"U","NORAD_CAT_ID":65286,"ELEMENT_SET_NO":999,"REV_AT_EPOCH":3125,"BSTAR":8.4130699e-5,"MEAN_MOTION_DOT":1.153e-5,"MEAN_MOTION_DDOT":0},{"OBJECT_NAME":"IRIDIUM 33 DEB","OBJECT_ID":"1997-051GB","EPOCH":"2026-03-09T18:44:19.060224","MEAN_MOTION":15.02189476,"ECCENTRICITY":0.0010038,"INCLINATION":86.3931,"RA_OF_ASC_NODE":331.664,"ARG_OF_PERICENTER":138.3098,"MEAN_ANOMALY":291.9123,"EPHEMERIS_TYPE":0,"CLASSIFICATION_TYPE":"U","NORAD_CAT_ID":34486,"ELEMENT_SET_NO":999,"REV_AT_EPOCH":90290,"BSTAR":0.0023709806,"MEAN_MOTION_DOT":0.00031372,"MEAN_MOTION_DDOT":0}]
